{"type":"Feature","properties":{"MUN":"SEA ISLE CITY","COUNTY":"CAPE MAY","MUN_LABEL":"Sea Isle City","MUN_TYPE":"City","NAME":"Sea Isle City","GNIS_NAME":"City of Sea Isle City"},"geometry":{"type":"Polygon","coordinates":[[[-74.6732056,39.1834055],[-74.6699637,39.1817606],[-74.6700066,39.1816875],[-74.6702923,39.1813428],[-74.6706389,39.1809466],[-74.6707729,39.18082],[-74.671168,39.1804129],[-74.6714158,39.1801707],[-74.671705,39.1799066],[-74.6720295,39.1793729],[-74.6722764,39.1791418],[-74.6723752,39.1790208],[-74.6725031,39.1788338],[-74.6726089,39.1786687],[-74.67275,39.178487],[-74.6728135,39.1783826],[-74.6729969,39.1782395],[-74.6731521,39.1780909],[-74.6732932,39.1779534],[-74.6736186,39.1775297],[-74.6736962,39.1773921],[-74.6737526,39.1772436],[-74.6739219,39.1769795],[-74.6742957,39.1765338],[-74.6745858,39.1763302],[-74.6747975,39.1760936],[-74.6749527,39.175736],[-74.6753053,39.1753343],[-74.6754825,39.1750867],[-74.6756589,39.1748006],[-74.6758634,39.1746025],[-74.6760962,39.1742504],[-74.6763078,39.1740852],[-74.676471,39.1739532],[-74.6765697,39.1737331],[-74.6766543,39.1735406],[-74.6768306,39.173227],[-74.6769999,39.1730013],[-74.677275,39.1726987],[-74.6774584,39.1724071],[-74.6776567,39.1721485],[-74.6779389,39.1718514],[-74.6780799,39.1716533],[-74.6781504,39.1714278],[-74.6782562,39.1710592],[-74.6784325,39.1708886],[-74.678503,39.170751],[-74.678913,39.1704318],[-74.6794702,39.1698925],[-74.6797241,39.1694029],[-74.6798942,39.1691058],[-74.6804513,39.1683134],[-74.6806277,39.1679338],[-74.6807253,39.1676796],[-74.6807545,39.1676037],[-74.6809379,39.1674001],[-74.6810727,39.1671801],[-74.6811292,39.16707],[-74.6816087,39.1664482],[-74.6817357,39.1663107],[-74.6819331,39.166052],[-74.6823642,39.1654028],[-74.6826064,39.1647402],[-74.6832149,39.1637524],[-74.6837188,39.1632844],[-74.6839373,39.1626408],[-74.6840431,39.1623602],[-74.6841841,39.1621071],[-74.6842828,39.1618376],[-74.6843039,39.1617495],[-74.6843039,39.161612],[-74.68438,39.1613277],[-74.6845294,39.1610783],[-74.6846846,39.1608637],[-74.6848608,39.1606491],[-74.6850019,39.1605116],[-74.6851438,39.1603575],[-74.6853483,39.1600823],[-74.6865266,39.1584096],[-74.6875016,39.1572985],[-74.6879377,39.1569402],[-74.6881853,39.1566981],[-74.6884602,39.1563294],[-74.6886154,39.1560378],[-74.6889044,39.1556361],[-74.6890171,39.155427],[-74.6891087,39.1551574],[-74.6890946,39.1549814],[-74.6890099,39.154921],[-74.6894128,39.1548053],[-74.6895749,39.1545411],[-74.6897019,39.1544145],[-74.6898429,39.1542659],[-74.6900331,39.1540018],[-74.6901107,39.1537433],[-74.6903724,39.1534131],[-74.690612,39.1530994],[-74.6908588,39.1527473],[-74.6909758,39.1526267],[-74.6911337,39.1525326],[-74.6914166,39.152329],[-74.6916141,39.1520648],[-74.6919172,39.1516851],[-74.6921216,39.1513109],[-74.6923118,39.1510028],[-74.6923842,39.1508656],[-74.6925243,39.1507056],[-74.6927216,39.1505846],[-74.692926,39.1503699],[-74.6931799,39.1501553],[-74.693357,39.1499791],[-74.6936319,39.1495994],[-74.6938081,39.1493298],[-74.6939913,39.1490382],[-74.6942099,39.1487795],[-74.6943657,39.1485154],[-74.6946266,39.1483007],[-74.6947394,39.1481247],[-74.6948873,39.1478881],[-74.6949931,39.1477065],[-74.6952256,39.1473708],[-74.6953667,39.1471672],[-74.6954732,39.1469526],[-74.6957481,39.1467544],[-74.6958962,39.1466113],[-74.6960371,39.1464187],[-74.6961851,39.1461766],[-74.6963754,39.1459125],[-74.6965947,39.1455603],[-74.6967005,39.1454007],[-74.6968062,39.1451917],[-74.6969823,39.1448285],[-74.6973629,39.1442948],[-74.6975531,39.1439151],[-74.69785,39.1436124],[-74.698005,39.1433758],[-74.6981953,39.1430511],[-74.698478,39.142663],[-74.6986323,39.1424513],[-74.6987336,39.1422449],[-74.6987943,39.1421212],[-74.6988651,39.1420336],[-74.6991193,39.1417195],[-74.6993448,39.1413123],[-74.6993728,39.1412188],[-74.6994222,39.1410536],[-74.6994786,39.1408336],[-74.6994996,39.1406246],[-74.6997745,39.1403053],[-74.6999789,39.1401292],[-74.7001128,39.1399696],[-74.7001902,39.1397055],[-74.7004166,39.1394304],[-74.7005927,39.1391167],[-74.7007028,39.1389574],[-74.7008817,39.1386985],[-74.7010859,39.1382694],[-74.7013795,39.1376011],[-74.7014935,39.1372597],[-74.7016141,39.1370754],[-74.701726,39.1369231],[-74.702094,39.136162],[-74.7022772,39.1358703],[-74.702883,39.1347863],[-74.7031365,39.1340546],[-74.7033416,39.1337849],[-74.7034637,39.1336016],[-74.7035248,39.1335098],[-74.7037362,39.1331576],[-74.7039193,39.1327835],[-74.7041376,39.1323708],[-74.7041452,39.1323515],[-74.7042926,39.1319746],[-74.7044809,39.1314521],[-74.704561,39.1312212],[-74.704649,39.1309737],[-74.7054485,39.1296815],[-74.7068433,39.1271003],[-74.70718,39.1264269],[-74.7074513,39.1259864],[-74.7075932,39.1257088],[-74.7076792,39.1255408],[-74.7079335,39.1251611],[-74.7079478,39.1251396],[-74.7079491,39.1251374],[-74.708021,39.1250116],[-74.7081098,39.1248563],[-74.7082113,39.1246714],[-74.7088738,39.1235954],[-74.7090599,39.1233255],[-74.7098853,39.1227434],[-74.7108541,39.1219995],[-74.7115837,39.1213418],[-74.7116368,39.121294],[-74.7120452,39.1208487],[-74.7120755,39.1208028],[-74.7120979,39.1207676],[-74.712109,39.1206973],[-74.7121164,39.1206651],[-74.7122682,39.1204715],[-74.7123768,39.1203307],[-74.7124703,39.1201577],[-74.7125002,39.1201137],[-74.7125902,39.1200315],[-74.7126127,39.1200022],[-74.712635,39.1199143],[-74.7126613,39.1198967],[-74.7127701,39.1198408],[-74.7128077,39.1198144],[-74.7129612,39.1196003],[-74.7137971,39.1179482],[-74.7160084,39.118497],[-74.7170818,39.1187634],[-74.7171395,39.1187806],[-74.7171965,39.1187993],[-74.7172525,39.1188196],[-74.7173077,39.1188414],[-74.7173618,39.1188646],[-74.7174148,39.1188893],[-74.7174667,39.1189154],[-74.7175175,39.1189429],[-74.7175669,39.1189717],[-74.7176151,39.1190019],[-74.7176618,39.1190333],[-74.7177072,39.1190659],[-74.717751,39.1190998],[-74.7177933,39.1191348],[-74.717834,39.1191709],[-74.7178731,39.1192081],[-74.7179105,39.1192464],[-74.7179461,39.1192856],[-74.71798,39.1193257],[-74.7180121,39.1193668],[-74.7180423,39.1194087],[-74.7180706,39.1194513],[-74.718097,39.1194947],[-74.7181215,39.1195388],[-74.7181439,39.1195835],[-74.7181644,39.1196288],[-74.7181828,39.1196746],[-74.7181991,39.1197209],[-74.7182134,39.1197676],[-74.7182256,39.1198147],[-74.7182357,39.119862],[-74.7182479,39.1199721],[-74.7182579,39.1200823],[-74.7182658,39.1201926],[-74.7182716,39.120303],[-74.7182751,39.1204134],[-74.7182766,39.1205239],[-74.7182759,39.1206344],[-74.718273,39.1207448],[-74.718268,39.1208552],[-74.7182608,39.1209655],[-74.7182515,39.1210758],[-74.71824,39.1211859],[-74.7182264,39.1212959],[-74.7182106,39.1214057],[-74.7181927,39.1215152],[-74.7181727,39.1216246],[-74.7181505,39.1217337],[-74.7181262,39.1218426],[-74.7180998,39.1219512],[-74.7180713,39.1220594],[-74.7180406,39.1221673],[-74.7180079,39.1222748],[-74.7179731,39.1223819],[-74.7179362,39.1224886],[-74.7178972,39.1225948],[-74.7178561,39.1227006],[-74.717813,39.1228059],[-74.7177678,39.1229107],[-74.7177206,39.1230149],[-74.7176714,39.1231185],[-74.7176202,39.1232216],[-74.7175669,39.1233241],[-74.7175117,39.1234259],[-74.7174545,39.123527],[-74.7173953,39.1236275],[-74.7173384,39.1237205],[-74.7172798,39.1238128],[-74.7172195,39.1239045],[-74.7171576,39.1239954],[-74.717094,39.1240858],[-74.7170288,39.1241754],[-74.716962,39.1242642],[-74.7168935,39.1243524],[-74.7168235,39.1244397],[-74.7167518,39.1245263],[-74.7166786,39.1246122],[-74.7166038,39.1246971],[-74.7165275,39.1247813],[-74.7163465,39.1250121],[-74.7161787,39.1252249],[-74.715774,39.1257921],[-74.7155215,39.1262611],[-74.715349,39.1266883],[-74.7151601,39.1272066],[-74.7151168,39.1273764],[-74.7149686,39.1279565],[-74.7148773,39.1286959],[-74.7147632,39.1296513],[-74.7146559,39.130638],[-74.7146,39.1312596],[-74.714559,39.1317157],[-74.7145657,39.1328374],[-74.7145897,39.1330222],[-74.714604,39.1331419],[-74.714624,39.1333084],[-74.7147666,39.1340734],[-74.7150768,39.1349577],[-74.7152686,39.1353816],[-74.7153258,39.1355144],[-74.715539,39.1360084],[-74.7155446,39.1360214],[-74.7155786,39.1362087],[-74.7156063,39.1365314],[-74.7155803,39.1367657],[-74.7154611,39.1371459],[-74.7153946,39.137245],[-74.715165,39.1375811],[-74.7146526,39.1383369],[-74.7141202,39.1389044],[-74.713953,39.1390826],[-74.7128624,39.1398472],[-74.7119686,39.1404682],[-74.7113483,39.1409379],[-74.7107951,39.1414751],[-74.7107458,39.14152],[-74.7105518,39.1416967],[-74.7101341,39.1421579],[-74.7100654,39.1422338],[-74.7100553,39.142242],[-74.709598,39.1426174],[-74.7095252,39.1426772],[-74.7089648,39.1430322],[-74.7076131,39.1437087],[-74.7066518,39.1441477],[-74.7059978,39.1445236],[-74.7057675,39.144662],[-74.7055676,39.1448758],[-74.7054079,39.1451207],[-74.7053416,39.1453082],[-74.7052955,39.1455582],[-74.7053235,39.1460006],[-74.7054422,39.1465756],[-74.7054813,39.1467723],[-74.7055507,39.147122],[-74.7057127,39.1476526],[-74.7058674,39.1479543],[-74.706156,39.1482935],[-74.706387,39.1482797],[-74.7068373,39.1482657],[-74.7072214,39.14824],[-74.707533,39.1482212],[-74.7077666,39.1481958],[-74.7080226,39.1481538],[-74.708316,39.1481068],[-74.7084589,39.1480849],[-74.708743,39.1480347],[-74.7091302,39.147959],[-74.7093067,39.1479211],[-74.7097548,39.1478429],[-74.7099473,39.1478158],[-74.7102857,39.1477925],[-74.7104473,39.1477975],[-74.7106432,39.1478052],[-74.7108873,39.1478288],[-74.7111005,39.1478552],[-74.711214,39.1478898],[-74.7113586,39.1479458],[-74.7115152,39.1480164],[-74.7116977,39.1481365],[-74.7118286,39.1482407],[-74.7119665,39.1483715],[-74.7120701,39.1485346],[-74.7121671,39.1487753],[-74.712259,39.1490307],[-74.7123352,39.1492554],[-74.7123356,39.1493014],[-74.7123339,39.1493475],[-74.7123299,39.1493934],[-74.7123238,39.1494392],[-74.7123156,39.1494847],[-74.7123052,39.1495301],[-74.7122927,39.1495751],[-74.7122781,39.1496197],[-74.7122614,39.1496638],[-74.7122426,39.1497075],[-74.7122218,39.1497506],[-74.7121989,39.1497931],[-74.7121741,39.1498349],[-74.7121473,39.149876],[-74.7121186,39.1499162],[-74.712088,39.1499557],[-74.7120556,39.1499943],[-74.7120214,39.1500319],[-74.7119855,39.1500685],[-74.7119478,39.1501041],[-74.7119085,39.1501386],[-74.7118157,39.1501996],[-74.7117216,39.1502594],[-74.711626,39.1503179],[-74.7115291,39.150375],[-74.711431,39.1504308],[-74.7113316,39.1504852],[-74.7112309,39.1505383],[-74.7111291,39.1505899],[-74.7110261,39.1506402],[-74.7109219,39.150689],[-74.7108166,39.1507364],[-74.7107103,39.1507823],[-74.710603,39.1508268],[-74.7104946,39.1508697],[-74.7103853,39.1509112],[-74.710275,39.1509512],[-74.7101639,39.1509896],[-74.7100518,39.1510265],[-74.709939,39.1510618],[-74.7098254,39.1510956],[-74.709711,39.1511278],[-74.7095958,39.1511584],[-74.70948,39.1511875],[-74.7093636,39.1512149],[-74.7092465,39.1512407],[-74.7091631,39.1512614],[-74.7090803,39.1512835],[-74.7089982,39.1513071],[-74.7089168,39.1513322],[-74.7088362,39.1513588],[-74.7087564,39.1513868],[-74.7086775,39.1514163],[-74.7085994,39.1514472],[-74.7085224,39.1514795],[-74.7084463,39.1515131],[-74.7083713,39.1515482],[-74.7082973,39.1515846],[-74.7082244,39.1516223],[-74.7081527,39.1516613],[-74.7080822,39.1517016],[-74.708013,39.1517432],[-74.7079449,39.151786],[-74.7078782,39.15183],[-74.7078129,39.1518752],[-74.7077489,39.1519216],[-74.7076863,39.1519692],[-74.7076252,39.1520178],[-74.7075656,39.1520676],[-74.7075075,39.1521184],[-74.7071673,39.1524157],[-74.7065455,39.152971],[-74.7064139,39.1530885],[-74.7060871,39.1533911],[-74.7057004,39.1537561],[-74.7055404,39.1539178],[-74.7052639,39.154254],[-74.7049709,39.1546241],[-74.704751,39.1548952],[-74.7044444,39.1552237],[-74.7043733,39.155289],[-74.7041777,39.1554688],[-74.7037673,39.1557584],[-74.7033601,39.1559777],[-74.7029126,39.1561399],[-74.7024182,39.1562397],[-74.7019637,39.1562977],[-74.700884,39.1563386],[-74.70057,39.1564173],[-74.7003096,39.1565322],[-74.700116,39.1566627],[-74.6998626,39.1569026],[-74.6996962,39.1571319],[-74.69961,39.1573975],[-74.699584,39.1576527],[-74.6995421,39.1582175],[-74.6994961,39.1584638],[-74.6994828,39.1585352],[-74.6993835,39.1588685],[-74.699264,39.1591758],[-74.6990777,39.1594989],[-74.6985749,39.1602259],[-74.6983305,39.1606502],[-74.6982688,39.1607574],[-74.6979962,39.1613044],[-74.6978767,39.1616013],[-74.6978242,39.1618853],[-74.6977944,39.1620465],[-74.6977618,39.1623745],[-74.6978094,39.1626399],[-74.6978251,39.1627063],[-74.6979041,39.1630406],[-74.6981199,39.1636961],[-74.6982973,39.1641777],[-74.6984198,39.1645103],[-74.6986874,39.1652847],[-74.6987703,39.1655247],[-74.6988043,39.1655872],[-74.6988403,39.165649],[-74.6988782,39.1657101],[-74.698918,39.1657705],[-74.6989597,39.1658301],[-74.6990032,39.1658889],[-74.6990486,39.1659469],[-74.6990958,39.166004],[-74.6991447,39.1660601],[-74.6991955,39.1661154],[-74.6992479,39.1661696],[-74.699302,39.1662229],[-74.6993578,39.1662751],[-74.6994152,39.1663263],[-74.6994742,39.1663763],[-74.6995348,39.1664252],[-74.6995969,39.166473],[-74.6996604,39.1665195],[-74.6997254,39.1665649],[-74.6997919,39.166609],[-74.6998596,39.1666519],[-74.6999287,39.1666934],[-74.6999991,39.1667336],[-74.7000708,39.1667725],[-74.7001436,39.1668101],[-74.7002176,39.1668462],[-74.7002927,39.1668809],[-74.7003689,39.1669142],[-74.7004461,39.1669461],[-74.7005243,39.1669765],[-74.7006034,39.1670054],[-74.7006834,39.1670327],[-74.7007642,39.1670586],[-74.7008459,39.167083],[-74.7009282,39.1671057],[-74.7010113,39.167127],[-74.701095,39.1671466],[-74.7011793,39.1671647],[-74.7012641,39.1671811],[-74.7013495,39.167196],[-74.7014352,39.1672092],[-74.7015214,39.1672208],[-74.7016079,39.1672308],[-74.7016947,39.1672392],[-74.7017817,39.1672459],[-74.7018689,39.1672509],[-74.7019563,39.1672543],[-74.7020437,39.1672561],[-74.7021311,39.1672562],[-74.7022186,39.1672546],[-74.7023059,39.1672514],[-74.7023548,39.1672533],[-74.7024036,39.1672569],[-74.7024521,39.1672621],[-74.7025003,39.167269],[-74.702548,39.1672775],[-74.7025952,39.1672876],[-74.7026418,39.1672994],[-74.7026877,39.1673127],[-74.7027327,39.1673276],[-74.7027769,39.167344],[-74.7028201,39.1673619],[-74.7028622,39.1673813],[-74.7029032,39.1674021],[-74.702943,39.1674243],[-74.7029814,39.1674478],[-74.7030185,39.1674726],[-74.7030542,39.1674986],[-74.7030883,39.1675259],[-74.7031208,39.1675543],[-74.7031517,39.1675837],[-74.7031809,39.1676142],[-74.7032083,39.1676457],[-74.7032339,39.1676781],[-74.7032577,39.1677113],[-74.7032795,39.1677453],[-74.7032993,39.16778],[-74.7033172,39.1678153],[-74.7033331,39.1678513],[-74.7033468,39.1678877],[-74.7033585,39.1679246],[-74.7033681,39.1679618],[-74.7033756,39.1679994],[-74.7033809,39.1680371],[-74.703384,39.168075],[-74.703385,39.168113],[-74.7033839,39.1681509],[-74.7033806,39.1681888],[-74.7033751,39.1682266],[-74.7033675,39.1682641],[-74.7033577,39.1683013],[-74.7033459,39.1683381],[-74.7033319,39.1683745],[-74.7033159,39.1684104],[-74.7032979,39.1684457],[-74.7032779,39.1684804],[-74.7032559,39.1685143],[-74.7032321,39.1685475],[-74.7032063,39.1685798],[-74.7031788,39.1686112],[-74.7031494,39.1686416],[-74.7031184,39.168671],[-74.7030858,39.1686993],[-74.7030515,39.1687265],[-74.7030158,39.1687524],[-74.7029786,39.1687771],[-74.70294,39.1688005],[-74.7029002,39.1688226],[-74.7028591,39.1688433],[-74.7028169,39.1688626],[-74.7027736,39.1688804],[-74.6984302,39.1706116],[-74.6919565,39.1737879],[-74.6843311,39.1693206],[-74.6843376,39.1694118],[-74.6843588,39.1695163],[-74.6845307,39.169813],[-74.6845706,39.1698626],[-74.684626,39.1699681],[-74.6846042,39.1700975],[-74.6846156,39.1702268],[-74.6846434,39.1702698],[-74.6846435,39.1703043],[-74.6845938,39.1703561],[-74.6845361,39.1703679],[-74.6844526,39.1703975],[-74.6844048,39.1704224],[-74.684383,39.1704317],[-74.684375,39.1704317],[-74.6843591,39.1704317],[-74.6843411,39.1704209],[-74.6842933,39.1703915],[-74.6842813,39.1703869],[-74.6842614,39.1703823],[-74.6842435,39.1703823],[-74.6842255,39.1703792],[-74.6842036,39.1703793],[-74.6841777,39.1703793],[-74.6841658,39.1703778],[-74.6841439,39.1703778],[-74.6841359,39.1703809],[-74.68412,39.1703856],[-74.6841081,39.1703949],[-74.6840962,39.1704089],[-74.6840942,39.1704259],[-74.6840844,39.1704818],[-74.6840706,39.1705236],[-74.6840587,39.1705376],[-74.6840309,39.1705516],[-74.683995,39.1705656],[-74.6839811,39.1705796],[-74.6839712,39.1705889],[-74.6839633,39.1705905],[-74.6839414,39.1705936],[-74.6839274,39.1705952],[-74.6839155,39.1705998],[-74.6838876,39.1706076],[-74.6838757,39.1706169],[-74.683834,39.1706449],[-74.6838261,39.1706728],[-74.6838033,39.1707348],[-74.6837596,39.1707737],[-74.6837159,39.1708109],[-74.6836582,39.1708389],[-74.6836105,39.1708545],[-74.6835508,39.1708639],[-74.683515,39.170867],[-74.6834612,39.1708733],[-74.6834293,39.1708734],[-74.6833935,39.1708719],[-74.6833756,39.1708719],[-74.6833596,39.1708719],[-74.6833338,39.1708735],[-74.6833099,39.1708829],[-74.6832821,39.1709062],[-74.6832702,39.1709279],[-74.6832563,39.1709388],[-74.6832284,39.1709465],[-74.6831986,39.1709512],[-74.6831568,39.1709808],[-74.683139,39.1710087],[-74.6831211,39.171032],[-74.6830914,39.1710677],[-74.6830834,39.1710878],[-74.6830736,39.171125],[-74.6830737,39.1711715],[-74.6830579,39.1712351],[-74.6830301,39.1712693],[-74.6830103,39.1712925],[-74.6829347,39.171305],[-74.6829148,39.1713144],[-74.6828969,39.1713299],[-74.682883,39.1713625],[-74.6828552,39.1713796],[-74.6828214,39.1714029],[-74.6827797,39.1714215],[-74.6826276,39.1714161],[-74.6825865,39.171428],[-74.6825428,39.1714545],[-74.6823338,39.1716532],[-74.6822865,39.1716982],[-74.6822468,39.1717324],[-74.6822007,39.1717476],[-74.6821388,39.1717569],[-74.6820296,39.1717665],[-74.681965,39.1717918],[-74.6819084,39.1718202],[-74.6818429,39.1718658],[-74.6818383,39.1718662],[-74.6817267,39.1719464],[-74.6816421,39.1720351],[-74.6816145,39.1720782],[-74.6815902,39.172315],[-74.6815586,39.1723811],[-74.6815226,39.1724135],[-74.6814581,39.1724592],[-74.6814218,39.1724781],[-74.6813663,39.1725404],[-74.6813462,39.1725782],[-74.6813234,39.1726585],[-74.6813091,39.1727034],[-74.6812721,39.1728553],[-74.6812784,39.1729435],[-74.6813088,39.1729843],[-74.681321,39.1730032],[-74.6813312,39.1730284],[-74.6813332,39.1730425],[-74.6813312,39.173052],[-74.6813141,39.1730685],[-74.6812343,39.1731167],[-74.6811859,39.1731687],[-74.6811678,39.1731923],[-74.6811497,39.173227],[-74.6810797,39.1733581],[-74.6810641,39.1733774],[-74.681046,39.1733869],[-74.6810222,39.1733933],[-74.6809616,39.173385],[-74.6809259,39.1733947],[-74.6809057,39.1734056],[-74.6808903,39.1734249],[-74.6808804,39.1734753],[-74.6808974,39.1735085],[-74.6809083,39.1735218],[-74.6809493,39.1735319],[-74.6809877,39.1735381],[-74.6809978,39.1735475],[-74.6810215,39.1736112],[-74.681034,39.1736446],[-74.6810397,39.1736856],[-74.6810273,39.1737255],[-74.6809829,39.1738061],[-74.6809674,39.1738461],[-74.6809737,39.1738787],[-74.6809964,39.1739041],[-74.6810154,39.173927],[-74.6810159,39.1739404],[-74.6810098,39.1739804],[-74.681016,39.1739925],[-74.6810363,39.1740118],[-74.6810391,39.1740207],[-74.6810441,39.1740348],[-74.681041,39.174042],[-74.6810286,39.1740493],[-74.6809865,39.1740634],[-74.6809439,39.1740737],[-74.6809284,39.1740809],[-74.6808988,39.1741034],[-74.6808851,39.1741271],[-74.6808354,39.1741997],[-74.6808007,39.1742508],[-74.6806892,39.1744119],[-74.6806561,39.1744615],[-74.6806388,39.1745341],[-74.6806171,39.174568],[-74.6805705,39.1745995],[-74.6805256,39.1746347],[-74.6804588,39.1746868],[-74.6804293,39.174722],[-74.6803999,39.1747741],[-74.6803938,39.1748104],[-74.6803939,39.174854],[-74.6804034,39.1749024],[-74.6804171,39.1749499],[-74.680406,39.1749966],[-74.6803284,39.1751287],[-74.6802856,39.1752175],[-74.6802884,39.1752412],[-74.6803002,39.1752662],[-74.6802996,39.17528],[-74.6802828,39.1752952],[-74.6802,39.175336],[-74.680172,39.1753506],[-74.6801457,39.1753833],[-74.6801163,39.1754329],[-74.680093,39.1754693],[-74.6800838,39.1755129],[-74.6800785,39.1755567],[-74.6800762,39.1755758],[-74.68007,39.1756073],[-74.6800515,39.1756485],[-74.6800422,39.1756594],[-74.6800251,39.1756703],[-74.6800158,39.1756764],[-74.6799972,39.1756849],[-74.6799863,39.1756946],[-74.6799785,39.1756994],[-74.6799723,39.1757067],[-74.6799599,39.1757212],[-74.679946,39.1757576],[-74.6799166,39.1758109],[-74.6798616,39.1758836],[-74.6798318,39.1759156],[-74.6797996,39.1759503],[-74.6797779,39.1759745],[-74.6797655,39.1759915],[-74.6797315,39.1760738],[-74.6796253,39.1762168],[-74.6796052,39.176235],[-74.679588,39.1762362],[-74.6795725,39.176235],[-74.6795445,39.1762302],[-74.6795328,39.1762351],[-74.6795251,39.1762412],[-74.6795266,39.1762448],[-74.6795275,39.1762569],[-74.6795399,39.1762762],[-74.6795384,39.1762871],[-74.679526,39.1762968],[-74.6794484,39.176355],[-74.6794314,39.1763805],[-74.6793849,39.1764689],[-74.6793543,39.1765037],[-74.6792777,39.1766234],[-74.6792131,39.176677],[-74.6789873,39.176818],[-74.6787433,39.1770025],[-74.6786751,39.177097],[-74.6786431,39.1771682],[-74.678631,39.177184],[-74.6786138,39.1771926],[-74.6785249,39.1771991],[-74.6783457,39.1771991],[-74.6782835,39.1772089],[-74.6782339,39.1772453],[-74.6782028,39.1772599],[-74.6780883,39.1772784],[-74.678052,39.1773163],[-74.678044,39.1773509],[-74.6780481,39.1773792],[-74.6780805,39.1774012],[-74.678121,39.1774201],[-74.6781534,39.1774452],[-74.6781656,39.1774829],[-74.6781658,39.1775302],[-74.6781537,39.1775522],[-74.6781416,39.1775711],[-74.6781335,39.1775884],[-74.6781194,39.1775963],[-74.6780992,39.1775964],[-74.678081,39.1775901],[-74.6780587,39.1775665],[-74.6780253,39.1775548],[-74.677998,39.1775556],[-74.6779353,39.1775746],[-74.677909,39.1775731],[-74.6778949,39.1775684],[-74.6778705,39.1775464],[-74.6778523,39.1775385],[-74.6778301,39.1775291],[-74.6777977,39.1775339],[-74.6777654,39.1775591],[-74.6777533,39.1775717],[-74.6777412,39.1775906],[-74.6777413,39.1776064],[-74.6777535,39.1776347],[-74.6777535,39.1776536],[-74.6777536,39.1776756],[-74.6777375,39.1777102],[-74.677677,39.1777764],[-74.6776649,39.1778079],[-74.6776762,39.1778685],[-74.6776642,39.1779063],[-74.677646,39.1779174],[-74.6776076,39.1779206],[-74.6775833,39.1779206],[-74.6775348,39.1779207],[-74.6775105,39.1779302],[-74.6774883,39.1779459],[-74.6774702,39.1779601],[-74.677452,39.1779838],[-74.6774461,39.1780247],[-74.677434,39.1780546],[-74.6774098,39.178083],[-74.6773977,39.1781003],[-74.6773715,39.1781193],[-74.6773493,39.1781335],[-74.677325,39.1781492],[-74.6772878,39.1782366],[-74.677294,39.1782681],[-74.6773001,39.1782823],[-74.6773102,39.1782901],[-74.6773163,39.1782948],[-74.6773285,39.1783058],[-74.6773346,39.1783184],[-74.6773346,39.1783294],[-74.6773326,39.1783483],[-74.6773105,39.1784129],[-74.6773025,39.1784334],[-74.6772924,39.1784476],[-74.6772818,39.1784548],[-74.6772123,39.1784614],[-74.677197,39.1784636],[-74.6771762,39.1784734],[-74.677151,39.1785044],[-74.6771107,39.1785501],[-74.6770986,39.1785738],[-74.6770966,39.1785895],[-74.6771068,39.178621],[-74.6771101,39.1786557],[-74.6771224,39.1786779],[-74.6771451,39.1786896],[-74.6771469,39.1786905],[-74.6771592,39.1787],[-74.6772162,39.1786968],[-74.6772448,39.1786967],[-74.6772651,39.1787014],[-74.6773264,39.1787664],[-74.6773347,39.1787933],[-74.6773594,39.1788901],[-74.6773717,39.1789456],[-74.6774105,39.178978],[-74.6775085,39.1790381],[-74.6775759,39.179092],[-74.6775902,39.1791141],[-74.6775903,39.1791443],[-74.6775904,39.1791792],[-74.6775478,39.1792744],[-74.6775052,39.1793443],[-74.6774869,39.1793808],[-74.677483,39.1794141],[-74.677483,39.1794379],[-74.6774933,39.1794664],[-74.6775158,39.1794934],[-74.67763,39.1795449],[-74.677635,39.1795485],[-74.6779952,39.1797069],[-74.6779966,39.1797076],[-74.6780215,39.179726],[-74.6780996,39.1797141],[-74.6783046,39.1796857],[-74.6783905,39.1796856],[-74.6784127,39.179692],[-74.6784266,39.179705],[-74.678435,39.1797308],[-74.678424,39.1797913],[-74.6784269,39.1798085],[-74.6784324,39.1798258],[-74.6784824,39.1798343],[-74.6784962,39.1798472],[-74.6785046,39.1798666],[-74.6785215,39.1799701],[-74.6785299,39.1800003],[-74.6785632,39.180037],[-74.6785993,39.1800542],[-74.6786603,39.1800713],[-74.6786742,39.1800778],[-74.6786936,39.1800864],[-74.6787103,39.1801209],[-74.6787187,39.180136],[-74.6788158,39.1801574],[-74.6788297,39.1801724],[-74.6789276,39.180286],[-74.6789756,39.1803117],[-74.6789999,39.1803164],[-74.6790262,39.1803148],[-74.6790302,39.1803116],[-74.6790424,39.1803069],[-74.6790504,39.1803006],[-74.6790686,39.1802927],[-74.679103,39.1802911],[-74.6791293,39.180291],[-74.6791515,39.1802863],[-74.6791576,39.1802816],[-74.6791596,39.1802768],[-74.6791596,39.180269],[-74.6791636,39.1802501],[-74.6791656,39.1802453],[-74.6791777,39.1802406],[-74.6791939,39.180239],[-74.6792121,39.180239],[-74.6792323,39.1802405],[-74.6792667,39.1802452],[-74.6792991,39.1802546],[-74.6793943,39.1803095],[-74.6794328,39.1803457],[-74.6794405,39.1803855],[-74.6794385,39.1804029],[-74.6794314,39.1804137],[-74.6793876,39.1804324],[-74.679357,39.1804531],[-74.6793285,39.1804619],[-74.6792928,39.1804691],[-74.6792571,39.1804854],[-74.6792439,39.180487],[-74.6791664,39.1804998],[-74.6791572,39.1805046],[-74.6791368,39.180513],[-74.679093,39.1805444],[-74.6790778,39.1805555],[-74.6790625,39.1805619],[-74.6790278,39.1805636],[-74.6790258,39.1805636],[-74.6789727,39.180562],[-74.6789605,39.1805637],[-74.6789544,39.1805668],[-74.6789483,39.1805764],[-74.6789483,39.1805827],[-74.6789483,39.1806065],[-74.6789793,39.1807304],[-74.6789997,39.1807621],[-74.6790488,39.1807874],[-74.679108,39.1807969],[-74.6791396,39.1808],[-74.6791896,39.1807951],[-74.6792793,39.1807823],[-74.6792998,39.180795],[-74.67934,39.1808315],[-74.6793421,39.1808389],[-74.6793613,39.1808636],[-74.6793695,39.1808951],[-74.6793582,39.1809156],[-74.6793368,39.1809291],[-74.6793236,39.1809339],[-74.6793072,39.1809355],[-74.6792593,39.1809197],[-74.6792338,39.1809197],[-74.6791889,39.1809214],[-74.6791644,39.1809226],[-74.6791348,39.1809298],[-74.679075,39.1809468],[-74.6790526,39.1809684],[-74.6790545,39.1810169],[-74.679055,39.1810284],[-74.6790451,39.1810856],[-74.6790314,39.1810978],[-74.6790176,39.1811024],[-74.6789804,39.1811223],[-74.6789628,39.1811346],[-74.6786595,39.1814694],[-74.6786419,39.1814832],[-74.6785925,39.1815113],[-74.6785165,39.1815353],[-74.6784989,39.1815582],[-74.6784908,39.1815894],[-74.6784854,39.1816591],[-74.6784933,39.1816835],[-74.6785288,39.1817643],[-74.6785288,39.1817766],[-74.678521,39.1817842],[-74.6785092,39.1817812],[-74.6783934,39.1817508],[-74.6783679,39.1817554],[-74.6783424,39.1817738],[-74.6782623,39.181893],[-74.6782623,39.1819113],[-74.6782784,39.1820533],[-74.6782824,39.182064],[-74.6783177,39.1820685],[-74.6783314,39.1820685],[-74.6784334,39.1820516],[-74.6784393,39.182047],[-74.6784451,39.1820393],[-74.6784451,39.1820241],[-74.6784333,39.1820119],[-74.6783979,39.1819768],[-74.6783979,39.1819631],[-74.6784076,39.1819539],[-74.6784312,39.1819462],[-74.6784763,39.1819416],[-74.6785018,39.1819522],[-74.6785097,39.1819644],[-74.6785176,39.181998],[-74.6785021,39.1820713],[-74.6784611,39.1821355],[-74.6784533,39.1821493],[-74.6784574,39.1822195],[-74.6784535,39.1822409],[-74.6783886,39.1823569],[-74.6781122,39.1827908],[-74.6778845,39.183085],[-74.6778193,39.1831581],[-74.6777335,39.1831882],[-74.677693,39.1832317],[-74.6776727,39.1832429],[-74.6776421,39.1832461],[-74.6775359,39.1832272],[-74.6774584,39.1832385],[-74.6774257,39.1832274],[-74.6773751,39.1832103],[-74.6772861,39.183201],[-74.6772214,39.1831917],[-74.6771991,39.1831809],[-74.6771764,39.1831565],[-74.6771726,39.1831523],[-74.6771317,39.1831429],[-74.6770705,39.1831319],[-74.676942,39.1830662],[-74.6768136,39.183034],[-74.6765348,39.1828947],[-74.6764824,39.1828544],[-74.6764336,39.1828321],[-74.6763867,39.1828274],[-74.676358,39.1828021],[-74.6762193,39.1827864],[-74.6759227,39.1826858],[-74.6758027,39.1826584],[-74.6757716,39.1826463],[-74.6754996,39.1825874],[-74.6753996,39.1825617],[-74.6751852,39.1825368],[-74.6750352,39.1825278],[-74.6750005,39.1825262],[-74.674974,39.1825263],[-74.6749169,39.1825248],[-74.6747078,39.1825394],[-74.6746385,39.1825474],[-74.6745599,39.1825602],[-74.6745416,39.1825698],[-74.6744217,39.1826386],[-74.6743668,39.1826953],[-74.6743067,39.1827162],[-74.6742637,39.1827595],[-74.6742083,39.1828152],[-74.6741199,39.1828517],[-74.6740099,39.1829618],[-74.67405,39.1829916],[-74.6740017,39.1830476],[-74.6739649,39.1830321],[-74.6739133,39.1830972],[-74.6738798,39.1830816],[-74.6738232,39.183148],[-74.6737998,39.1831377],[-74.6737364,39.1832028],[-74.6737565,39.1832236],[-74.6737282,39.18326],[-74.6737031,39.1832522],[-74.6736631,39.1832965],[-74.6736364,39.1832862],[-74.6735597,39.1833799],[-74.6734781,39.1834541],[-74.6733375,39.1833581],[-74.6733141,39.1833471],[-74.6732205,39.1833968],[-74.6732056,39.1834055]]]}}
